IRIDIUM 112             
1 41925U 17003J   24274.56575707  .00000474  00000+0  16220-3 0  9991
2 41925  86.4023 349.3387 0001914  88.4069 271.7347 14.34221946403748
IRIDIUM 111             
1 41926U 17003K   24274.55307901  .00000224  00000+0  73075-4 0  9995
2 41926  86.4022 349.4004 0001889  95.2433 264.8978 14.34216620403721
IRIDIUM 113             
1 42803U 17039A   24274.60278426  .00000954  00000+0  33357-3 0  9992
2 42803  86.3995 223.1175 0001949  83.9623 276.1795 14.34230390381664
IRIDIUM 123             
1 42804U 17039B   24274.36521975 -.00000110  00000+0 -46215-4 0  9990
2 42804  86.3924 254.7009 0002094  92.0608 268.0828 14.34216534380399
IRIDIUM 120             
1 42805U 17039C   24274.31739682  .00000746  00000+0  25934-3 0  9999
2 42805  86.3983 223.1004 0002372  85.1324 275.0143 14.34217716381614
IRIDIUM 115             
1 42806U 17039D   24274.10106626  .00001400  00000+0  41022-3 0  9997
2 42806  86.4521 223.2306 0001914  80.7100 279.4317 14.43277212384109
IRIDIUM 118             
1 42807U 17039E   24274.46670074 -.00000069  00000+0 -31698-4 0  9991
2 42807  86.3924 254.6591 0002292  87.8769 272.2690 14.34216935380408
IRIDIUM 117             
1 42808U 17039F   24274.20665509 -.00000121  00000+0 -50182-4 0  9999
2 42808  86.3925 254.7315 0002034  89.1007 271.0422 14.34216094380393
